NORAD_CAT_ID,OBJECT_NAME,OBJECT_TYPE,EPOCH,MEAN_MOTION,ECCENTRICITY,INCLINATION,RA_OF_ASC_NODE,ARG_OF_PERICENTER,MEAN_ANOMALY,BSTAR,MEAN_MOTION_DOT,MEAN_MOTION_DDOT,TLE_LINE0,TLE_LINE1,TLE_LINE2,SEMIMAJOR_AXIS,PERIOD,APOGEE,PERIGEE,DECAYED
49447.0,STARLINK-3115,PAYLOAD,2023-02-22 18:35:45,15.08859896,0.0001016,53.2171,166.2078,88.1364,271.9744,0.0015554,0.00024566,0.0,0 STARLINK-3115,1 49447U 21104AR  23053.77483507  .00024566  00000-0  15554-2 0  9995,2 49447  53.2171 166.2078 0001016  88.1364 271.9744 15.08859896 71064,6917.82,95.436,540.387,538.982,0.0
49447.0,STARLINK-3115,PAYLOAD,2023-02-23 00:57:18,15.08838118,0.0001012,53.2172,165.0187,75.1534,284.957,0.00062203,9.625e-05,0.0,0 STARLINK-3115,1 49447U 21104AR  23054.03979985  .00009625  00000-0  62203-3 0  9998,2 49447  53.2172 165.0187 0001012  75.1534 284.9570 15.08838118 72172,6917.886,95.438,540.451,539.051,0.0
49447.0,STARLINK-3115,PAYLOAD,2023-02-23 12:05:00,15.08842507,0.0001278,53.2171,162.9371,98.4267,261.687,0.0014666,0.00023132,0.0,0 STARLINK-3115,1 49447U 21104AR  23054.50348371  .00023132  00000-0  14666-2 0  9997,2 49447  53.2171 162.9371 0001278  98.4267 261.6870 15.08842507 71178,6917.873,95.437,540.622,538.854,0.0
49447.0,STARLINK-3115,PAYLOAD,2023-02-23 18:26:33,15.08853482,0.0001377,53.2172,161.7468,97.9983,262.1165,0.0017089,0.00027024,0.0,0 STARLINK-3115,1 49447U 21104AR  23054.76844248  .00027024  00000-0  17089-2 0  9995,2 49447  53.2172 161.7468 0001377  97.9983 262.1165 15.08853482 71214,6917.839,95.437,540.657,538.752,0.0
49447.0,STARLINK-3115,PAYLOAD,2023-02-24 11:55:48,15.08853184,0.0001177,53.2171,158.4766,100.5528,259.5597,0.0016462,0.00026018,0.0,0 STARLINK-3115,1 49447U 21104AR  23055.49708469  .00026018  00000-0  16462-2 0  9996,2 49447  53.2171 158.4766 0001177 100.5528 259.5597 15.08853184 71321,6917.84,95.437,540.519,538.891,0.0
49447.0,STARLINK-3115,PAYLOAD,2023-02-24 13:31:11,15.08856253,0.0001127,53.2171,158.1789,102.3482,257.7636,0.0018333,0.00029022,0.0,0 STARLINK-3115,1 49447U 21104AR  23055.56332407  .00029022  00000-0  18333-2 0  9996,2 49447  53.2171 158.1789 0001127 102.3482 257.7636 15.08856253 72401,6917.831,95.437,540.475,538.916,0.0
49447.0,STARLINK-3115,PAYLOAD,2023-02-24 18:17:20,15.08864504,0.0001213,53.2172,157.2868,101.4313,258.6815,0.0016387,0.00025906,0.0,0 STARLINK-3115,1 49447U 21104AR  23055.76204154  .00025906  00000-0  16387-2 0  9999,2 49447  53.2172 157.2868 0001213 101.4313 258.6815 15.08864504 71360,6917.805,95.436,540.51,538.831,0.0
49447.0,STARLINK-3115,PAYLOAD,2023-02-25 07:00:26,15.08825682,0.000202,53.2174,154.9035,120.8184,239.3008,0.00097757,0.00015298,0.0,0 STARLINK-3115,1 49447U 21104AR  23056.29197012  .00015298  00000-0  97757-3 0  9996,2 49447  53.2174 154.9035 0002020 120.8184 239.3008 15.08825682 72512,6917.924,95.438,541.187,538.392,0.0
49447.0,STARLINK-3115,PAYLOAD,2023-02-25 13:21:59,15.08829749,0.0001203,53.2179,153.7194,95.7433,264.3697,0.0013708,0.00021589,0.0,0 STARLINK-3115,1 49447U 21104AR  23056.55693472  .00021589  00000-0  13708-2 0  9999,2 49447  53.2179 153.7194 0001203  95.7433 264.3697 15.08829749 71484,6917.912,95.438,540.609,538.944,0.0
49447.0,STARLINK-3115,PAYLOAD,2023-02-25 18:08:08,15.08836784,0.0001213,53.218,152.8252,100.1455,259.9674,0.0013585,0.00021397,0.0,0 STARLINK-3115,1 49447U 21104AR  23056.75565511  .00021397  00000-0  13585-2 0  9993,2 49447  53.2180 152.8252 0001213 100.1455 259.9674 15.08836784 71513,6917.89,95.438,540.594,538.916,0.0
49447.0,STARLINK-3115,PAYLOAD,2023-02-25 22:54:18,15.08839022,0.0001249,53.2181,151.9338,97.7264,262.387,0.0010668,0.0001673,0.0,0 STARLINK-3115,1 49447U 21104AR  23056.95437615  .00016730  00000-0  10668-2 0  9992,2 49447  53.2181 151.9338 0001249  97.7264 262.3870 15.08839022 72613,6917.883,95.438,540.612,538.884,0.0
49447.0,STARLINK-3115,PAYLOAD,2023-02-26 08:26:36,15.08863572,0.0001171,53.2177,150.149,98.3368,261.7757,0.0014541,0.00022945,0.0,0 STARLINK-3115,1 49447U 21104AR  23057.35181132  .00022945  00000-0  14541-2 0  9996,2 49447  53.2177 150.1490 0001171  98.3368 261.7757 15.08863572 72674,6917.808,95.436,540.483,538.863,0.0
49447.0,STARLINK-3115,PAYLOAD,2023-02-26 11:37:22,15.08874653,0.0001265,53.2172,149.5552,93.8905,266.2231,0.001785,0.00028262,0.0,0 STARLINK-3115,1 49447U 21104AR  23057.48428856  .00028262  00000-0  17850-2 0  9991,2 49447  53.2172 149.5552 0001265  93.8905 266.2231 15.08874653 71624,6917.774,95.435,540.515,538.764,0.0
49447.0,STARLINK-3115,PAYLOAD,2023-02-26 14:48:08,15.0888566,0.000127,53.2175,148.9609,92.619,267.4948,0.0019365,0.00030705,0.0,0 STARLINK-3115,1 49447U 21104AR  23057.61676443  .00030705  00000-0  19365-2 0  9991,2 49447  53.2175 148.9609 0001270  92.6190 267.4948 15.08885660 72711,6917.741,95.435,540.484,538.727,0.0
49447.0,STARLINK-3115,PAYLOAD,2023-02-27 17:49:40,15.08934412,0.0001189,53.2163,143.905,105.1243,254.9881,0.0051531,0.00082904,0.0,0 STARLINK-3115,1 49447U 21104AR  23058.74283037  .00082904  00000-0  51531-2 0  9998,2 49447  53.2163 143.9050 0001189 105.1243 254.9881 15.08934412 72886,6917.592,95.432,540.279,538.634,0.0
49447.0,STARLINK-3115,PAYLOAD,2023-02-27 21:00:27,15.08893168,0.0002474,53.2172,143.3102,78.9541,281.173,0.002764,0.00044042,0.0,0 STARLINK-3115,1 49447U 21104AR  23058.87531496  .00044042  00000-0  27640-2 0  9992,2 49447  53.2172 143.3102 0002474  78.9541 281.1730 15.08893168 71835,6917.718,95.434,541.294,537.871,0.0
49447.0,STARLINK-3115,PAYLOAD,2023-02-27 22:35:50,15.08855857,7.11e-05,53.2186,143.0156,127.8233,232.2823,0.0004521,6.918e-05,0.0,0 STARLINK-3115,1 49447U 21104AR  23058.94155327  .00006918  00000-0  45210-3 0  9999,2 49447  53.2186 143.0156 0000711 127.8233 232.2823 15.08855857 72913,6917.832,95.437,540.189,539.205,0.0
49447.0,STARLINK-3115,PAYLOAD,2023-02-28 12:54:18,15.0886784,0.0001073,53.217,140.3382,81.0687,279.0427,0.0018231,0.00028868,0.0,0 STARLINK-3115,1 49447U 21104AR  23059.53771049  .00028868  00000-0  18231-2 0  9990,2 49447  53.2170 140.3382 0001073  81.0687 279.0427 15.08867840 71938,6917.795,95.436,540.403,538.918,0.0
49447.0,STARLINK-3115,PAYLOAD,2023-02-28 17:40:27,15.08884224,0.0001186,53.2166,139.4455,75.1766,284.9358,0.0025133,0.00039987,0.0,0 STARLINK-3115,1 49447U 21104AR  23059.73642626  .00039987  00000-0  25133-2 0  9993,2 49447  53.2166 139.4455 0001186  75.1766 284.9358 15.08884224 71966,6917.745,95.435,540.431,538.79,0.0
49447.0,STARLINK-3115,PAYLOAD,2023-02-28 22:26:37,15.08792655,8.28e-05,53.2172,138.5535,136.9816,223.1241,-0.0030327,-0.00048167,0.0,0 STARLINK-3115,1 49447U 21104AR  23059.93515478 -.00048167  00000-0 -30327-2 0  9992,2 49447  53.2172 138.5535 0000828 136.9816 223.1241 15.08792655 73061,6918.025,95.441,540.463,539.317,0.0
49447.0,STARLINK-3115,PAYLOAD,2023-03-01 11:09:45,15.0877876,0.0001242,53.2166,136.1746,106.7823,253.3305,0.0026672,0.00042344,0.0,0 STARLINK-3115,1 49447U 21104AR  23060.46510562  .00042344  00000-0  26672-2 0  9998,2 49447  53.2166 136.1746 0001242 106.7823 253.3305 15.08778760 73142,6918.068,95.441,540.792,539.073,0.0
49447.0,STARLINK-3115,PAYLOAD,2023-03-01 15:55:55,15.08792428,0.0001289,53.2167,135.2824,106.2506,253.8628,0.0022436,0.00035553,0.0,0 STARLINK-3115,1 49447U 21104AR  23060.66383288  .00035553  00000-0  22436-2 0  9991,2 49447  53.2167 135.2824 0001289 106.2506 253.8628 15.08792428 72109,6918.026,95.441,540.783,538.999,0.0
49447.0,STARLINK-3115,PAYLOAD,2023-03-01 22:17:27,15.08832438,0.0001159,53.2174,134.0938,126.7141,233.3958,0.0035894,0.0005729,0.0,0 STARLINK-3115,1 49447U 21104AR  23060.92879428  .00057290  00000-0  35894-2 0  9990,2 49447  53.2174 134.0938 0001159 126.7141 233.3958 15.08832438 73216,6917.904,95.438,540.57,538.967,0.0
49447.0,STARLINK-3115,PAYLOAD,2023-03-02 15:46:41,15.08905169,0.0001154,53.2181,130.8228,111.0165,249.095,0.0031564,0.00050395,0.0,0 STARLINK-3115,1 49447U 21104AR  23061.65742004  .00050395  00000-0  31564-2 0  9999,2 49447  53.2181 130.8228 0001154 111.0165 249.0950 15.08905169 72259,6917.681,95.433,540.345,538.748,0.0
49447.0,STARLINK-3115,PAYLOAD,2023-03-03 09:15:54,15.08893038,0.0001286,53.2178,127.5523,124.0707,236.0407,0.0030749,0.00049061,0.0,0 STARLINK-3115,1 49447U 21104AR  23062.38605220  .00049061  00000-0  30749-2 0  9990,2 49447  53.2178 127.5523 0001286 124.0707 236.0407 15.08893038 73433,6917.718,95.434,540.473,538.694,0.0
49447.0,STARLINK-3115,PAYLOAD,2023-03-03 10:51:17,15.08892807,0.000127,53.2182,127.255,115.272,244.8404,0.0030049,0.0004793,0.0,0 STARLINK-3115,1 49447U 21104AR  23062.45229122  .00047930  00000-0  30049-2 0  9997,2 49447  53.2182 127.2550 0001270 115.2720 244.8404 15.08892807 72374,6917.719,95.434,540.463,538.705,0.0
49447.0,STARLINK-3115,PAYLOAD,2023-03-03 14:02:03,15.08898191,0.0001356,53.2184,126.6599,106.3739,253.7402,0.0027768,0.00044253,0.0,0 STARLINK-3115,1 49447U 21104AR  23062.58476756  .00044253  00000-0  27768-2 0  9997,2 49447  53.2184 126.6599 0001356 106.3739 253.7402 15.08898191 73468,6917.703,95.434,540.506,538.629,0.0
49447.0,STARLINK-3115,PAYLOAD,2023-03-03 15:37:26,15.08901168,0.0001337,53.2181,126.3614,101.3814,258.7328,0.002629,0.00041872,0.0,0 STARLINK-3115,1 49447U 21104AR  23062.65100540  .00041872  00000-0  26290-2 0  9993,2 49447  53.2181 126.3614 0001337 101.3814 258.7328 15.08901168 72402,6917.693,95.434,540.483,538.634,0.0
49447.0,STARLINK-3115,PAYLOAD,2023-03-04 09:06:41,15.08860611,0.0001241,53.2179,123.0915,121.5025,238.6088,0.0023851,0.00037897,0.0,0 STARLINK-3115,1 49447U 21104AR  23063.37965012  .00037897  00000-0  23851-2 0  9998,2 49447  53.2179 123.0915 0001241 121.5025 238.6088 15.08860611 72518,6917.817,95.436,540.541,538.824,0.0
49447.0,STARLINK-3115,PAYLOAD,2023-03-04 15:28:13,15.08881997,0.0001231,53.2181,121.9018,121.6548,238.4565,0.0031613,0.00050442,0.0,0 STARLINK-3115,1 49447U 21104AR  23063.64460594  .00050442  00000-0  31613-2 0  9999,2 49447  53.2181 121.9018 0001231 121.6548 238.4565 15.08881997 73623,6917.752,95.435,540.469,538.765,0.0
